0 COSMOS 2251 DEB
1 34442U 93036SK  13281.74004652  .00004083  00000-0  90003-3 0  2680
2 34442 074.0219 049.8631 0085008 211.4143 266.6895 14.55478848245658
0 COSMOS 2251 DEB
1 34442U 93036SK  13283.10206258  .00005657  00000-0  12436-2 0  2690
2 34442 074.0221 047.2811 0084967 208.4719 203.3464 14.55496302245858
0 COSMOS 2251 DEB
1 34442U 93036SK  13285.44163604  .00004627  00000-0  10184-2 0  2702
2 34442 074.0222 042.8440 0084790 203.4939 222.2648 14.55517861246197
0 COSMOS 2251 DEB
1 34442U 93036SK  13286.76629760  .00004736  00000-0  10421-2 0  2714
2 34442 074.0225 040.3316 0084737 200.7289 323.2634 14.55527773246385
0 COSMOS 2251 DEB
1 34442U 93036SK  13288.12181653  .00007702  00000-0  16891-2 0  2724
2 34442 074.0229 037.7606 0084623 197.9182 225.9865 14.55542751246583
0 COSMOS 2251 DEB
1 34442U 93036SK  13289.43825152  .00006076  00000-0  13339-2 0  2736
2 34442 074.0233 035.2642 0084542 195.1686 284.0151 14.55559228246772
0 COSMOS 2251 DEB
1 34442U 93036SK  13290.47018637  .00006687  00000-0  14672-2 0  2744
2 34442 074.0236 033.3072 0084464 192.9458 291.3992 14.55569143246924
0 COSMOS 2251 DEB
1 34442U 93036SK  13291.50165713  .00005637  00000-0  12378-2 0  2753
2 34442 074.0236 031.3512 0084404 190.7647 296.3504 14.55579977247078
0 COSMOS 2251 DEB
1 34442U 93036SK  13292.74563788  .00005474  00000-0  12020-2 0  2768
2 34442 074.0236 028.9921 0084302 188.1654 334.8844 14.55592564247252
0 COSMOS 2251 DEB
1 34442U 93036SK  13294.10264249  .00005890  00000-0  12926-2 0  2778
2 34442 074.0232 026.4185 0084207 185.2859 245.7787 14.55605349247456
0 COSMOS 2251 DEB
1 34442U 93036SK  13295.33816484  .00006210  00000-0  13621-2 0  2789
2 34442 074.0229 024.0748 0084100 182.6457 240.1615 14.55618120247638
